TWILIGHT P              
1 67376U 26004P   26033.60672306  .00002970  00000+0  33116-3 0  9999
2 67376  97.7999  34.4050 0004796 196.3733 163.7329 14.87792200  3289
TWILIGHT Q              
1 67377U 26004Q   26030.51082713  .00143096  00000+0  15177-1 0  9994
2 67377  97.7999  31.3669 0005874 208.7548 151.3345 14.88273239  2818
TWILIGHT R              
1 67378U 26004R   26033.60780849  .00002972  00000+0  33195-3 0  9992
2 67378  97.7973  34.3980 0004152 205.2317 154.8697 14.87724670  3272
TWILIGHT S              
1 67379U 26004S   26033.60764331  .00002805  00000+0  31358-3 0  9995
2 67379  97.7977  34.4000 0004686 201.9792 158.1224 14.87732274  3275
TWILIGHT T              
1 67380U 26004T   26033.60629539  .00002860  00000+0  31882-3 0  9990
2 67380  97.7970  34.4000 0004213 200.4185 159.6863 14.87833459  3278
TWILIGHT U              
1 67381U 26004U   26029.09880986 -.00108717  00000+0 -12141-1 0  9999
2 67381  97.8008  29.9801 0002046 271.4981  88.6001 14.87635167  2601
TWILIGHT V              
1 67382U 26004V   26033.60339304  .00002826  00000+0  31366-3 0  9999
2 67382  97.7998  34.4091 0004228 185.6547 174.4623 14.88017818  3275
TWILIGHT W              
1 67383U 26004W   26033.60743320  .00002923  00000+0  32628-3 0  9997
2 67383  97.7974  34.3995 0004511 202.8217 157.2799 14.87750752  3276
TWILIGHT X              
1 67384U 26004X   26033.60135910  .00006845  00000+0  74616-3 0  9998
2 67384  97.7970  34.4071 0003648 185.4299 174.6879 14.88274396  3273
TWILIGHT Y              
1 67385U 26004Y   26033.60010416  .00006604  00000+0  71849-3 0  9990
2 67385  97.7981  34.4108 0003663 178.8798 181.2427 14.88368159  3278
TWILIGHT Z              
1 67386U 26004Z   26033.59872337  .00003538  00000+0  38815-3 0  9996
2 67386  97.7963  34.4101 0002453 176.3930 183.7305 14.88337063  3271
TWILIGHT AA             
1 67387U 26004AA  26033.52765696  .00006268  00000+0  67708-3 0  9995
2 67387  97.8013  34.3556 0003650 149.2336 210.9096 14.88677334  3268
