CCSDS_OMM_VERS = 2.0
CREATION_DATE  = 
ORIGINATOR     = 

OBJECT_NAME    = TWILIGHT P
OBJECT_ID      = 2026-004P
CENTER_NAME    = EARTH
REF_FRAME      = TEME
TIME_SYSTEM    = UTC
MEAN_ELEMENT_THEORY = SGP/SGP4

EPOCH          = 2026-02-02T14:33:40.872384
MEAN_MOTION    = 14.87792200
ECCENTRICITY   = .00047966
INCLINATION    = 97.7999
RA_OF_ASC_NODE = 34.4050
ARG_OF_PERICENTER = 196.3733
MEAN_ANOMALY   = 163.7329

EPHEMERIS_TYPE = 0
CLASSIFICATION_TYPE = U
NORAD_CAT_ID   = 67376
ELEMENT_SET_NO = 999
REV_AT_EPOCH   = 328
BSTAR          = .33115545E-3
MEAN_MOTION_DOT = .297E-4
MEAN_MOTION_DDOT = 0

CCSDS_OMM_VERS = 2.0
CREATION_DATE  = 
ORIGINATOR     = 

OBJECT_NAME    = TWILIGHT Q
OBJECT_ID      = 2026-004Q
CENTER_NAME    = EARTH
REF_FRAME      = TEME
TIME_SYSTEM    = UTC
MEAN_ELEMENT_THEORY = SGP/SGP4

EPOCH          = 2026-01-30T12:15:35.464032
MEAN_MOTION    = 14.88273239
ECCENTRICITY   = .00058744
INCLINATION    = 97.7999
RA_OF_ASC_NODE = 31.3669
ARG_OF_PERICENTER = 208.7548
MEAN_ANOMALY   = 151.3345

EPHEMERIS_TYPE = 0
CLASSIFICATION_TYPE = U
NORAD_CAT_ID   = 67377
ELEMENT_SET_NO = 999
REV_AT_EPOCH   = 281
BSTAR          = .1517736E-1
MEAN_MOTION_DOT = .143096E-2
MEAN_MOTION_DDOT = 0

CCSDS_OMM_VERS = 2.0
CREATION_DATE  = 
ORIGINATOR     = 

OBJECT_NAME    = TWILIGHT R
OBJECT_ID      = 2026-004R
CENTER_NAME    = EARTH
REF_FRAME      = TEME
TIME_SYSTEM    = UTC
MEAN_ELEMENT_THEORY = SGP/SGP4

EPOCH          = 2026-02-02T14:35:14.653536
MEAN_MOTION    = 14.87724670
ECCENTRICITY   = .0004152
INCLINATION    = 97.7973
RA_OF_ASC_NODE = 34.3980
ARG_OF_PERICENTER = 205.2317
MEAN_ANOMALY   = 154.8697

EPHEMERIS_TYPE = 0
CLASSIFICATION_TYPE = U
NORAD_CAT_ID   = 67378
ELEMENT_SET_NO = 999
REV_AT_EPOCH   = 327
BSTAR          = .33194529E-3
MEAN_MOTION_DOT = .2972E-4
MEAN_MOTION_DDOT = 0

CCSDS_OMM_VERS = 2.0
CREATION_DATE  = 
ORIGINATOR     = 

OBJECT_NAME    = TWILIGHT S
OBJECT_ID      = 2026-004S
CENTER_NAME    = EARTH
REF_FRAME      = TEME
TIME_SYSTEM    = UTC
MEAN_ELEMENT_THEORY = SGP/SGP4

EPOCH          = 2026-02-02T14:35:00.381984
MEAN_MOTION    = 14.87732274
ECCENTRICITY   = .0004686
INCLINATION    = 97.7977
RA_OF_ASC_NODE = 34.4000
ARG_OF_PERICENTER = 201.9792
MEAN_ANOMALY   = 158.1224

EPHEMERIS_TYPE = 0
CLASSIFICATION_TYPE = U
NORAD_CAT_ID   = 67379
ELEMENT_SET_NO = 999
REV_AT_EPOCH   = 327
BSTAR          = .31358019E-3
MEAN_MOTION_DOT = .2805E-4
MEAN_MOTION_DDOT = 0

CCSDS_OMM_VERS = 2.0
CREATION_DATE  = 
ORIGINATOR     = 

OBJECT_NAME    = TWILIGHT T
OBJECT_ID      = 2026-004T
CENTER_NAME    = EARTH
REF_FRAME      = TEME
TIME_SYSTEM    = UTC
MEAN_ELEMENT_THEORY = SGP/SGP4

EPOCH          = 2026-02-02T14:33:03.921696
MEAN_MOTION    = 14.87833459
ECCENTRICITY   = .00042136
INCLINATION    = 97.7970
RA_OF_ASC_NODE = 34.4000
ARG_OF_PERICENTER = 200.4185
MEAN_ANOMALY   = 159.6863

EPHEMERIS_TYPE = 0
CLASSIFICATION_TYPE = U
NORAD_CAT_ID   = 67380
ELEMENT_SET_NO = 999
REV_AT_EPOCH   = 327
BSTAR          = .31881946E-3
MEAN_MOTION_DOT = .286E-4
MEAN_MOTION_DDOT = 0

CCSDS_OMM_VERS = 2.0
CREATION_DATE  = 
ORIGINATOR     = 

OBJECT_NAME    = TWILIGHT U
OBJECT_ID      = 2026-004U
CENTER_NAME    = EARTH
REF_FRAME      = TEME
TIME_SYSTEM    = UTC
MEAN_ELEMENT_THEORY = SGP/SGP4

EPOCH          = 2026-01-29T02:22:17.171904
MEAN_MOTION    = 14.87635167
ECCENTRICITY   = .00020462
INCLINATION    = 97.8008
RA_OF_ASC_NODE = 29.9801
ARG_OF_PERICENTER = 271.4981
MEAN_ANOMALY   = 88.6001

EPHEMERIS_TYPE = 0
CLASSIFICATION_TYPE = U
NORAD_CAT_ID   = 67381
ELEMENT_SET_NO = 999
REV_AT_EPOCH   = 260
BSTAR          = -.12141477E-1
MEAN_MOTION_DOT = -.108717E-2
MEAN_MOTION_DDOT = 0

CCSDS_OMM_VERS = 2.0
CREATION_DATE  = 
ORIGINATOR     = 

OBJECT_NAME    = TWILIGHT V
OBJECT_ID      = 2026-004V
CENTER_NAME    = EARTH
REF_FRAME      = TEME
TIME_SYSTEM    = UTC
MEAN_ELEMENT_THEORY = SGP/SGP4

EPOCH          = 2026-02-02T14:28:53.158656
MEAN_MOTION    = 14.88017818
ECCENTRICITY   = .00042283
INCLINATION    = 97.7998
RA_OF_ASC_NODE = 34.4091
ARG_OF_PERICENTER = 185.6547
MEAN_ANOMALY   = 174.4623

EPHEMERIS_TYPE = 0
CLASSIFICATION_TYPE = U
NORAD_CAT_ID   = 67382
ELEMENT_SET_NO = 999
REV_AT_EPOCH   = 327
BSTAR          = .31366092E-3
MEAN_MOTION_DOT = .2826E-4
MEAN_MOTION_DDOT = 0

CCSDS_OMM_VERS = 2.0
CREATION_DATE  = 
ORIGINATOR     = 

OBJECT_NAME    = TWILIGHT W
OBJECT_ID      = 2026-004W
CENTER_NAME    = EARTH
REF_FRAME      = TEME
TIME_SYSTEM    = UTC
MEAN_ELEMENT_THEORY = SGP/SGP4

EPOCH          = 2026-02-02T14:34:42.228480
MEAN_MOTION    = 14.87750752
ECCENTRICITY   = .00045112
INCLINATION    = 97.7974
RA_OF_ASC_NODE = 34.3995
ARG_OF_PERICENTER = 202.8217
MEAN_ANOMALY   = 157.2799

EPHEMERIS_TYPE = 0
CLASSIFICATION_TYPE = U
NORAD_CAT_ID   = 67383
ELEMENT_SET_NO = 999
REV_AT_EPOCH   = 327
BSTAR          = .32628197E-3
MEAN_MOTION_DOT = .2923E-4
MEAN_MOTION_DDOT = 0

CCSDS_OMM_VERS = 2.0
CREATION_DATE  = 
ORIGINATOR     = 

OBJECT_NAME    = TWILIGHT X
OBJECT_ID      = 2026-004X
CENTER_NAME    = EARTH
REF_FRAME      = TEME
TIME_SYSTEM    = UTC
MEAN_ELEMENT_THEORY = SGP/SGP4

EPOCH          = 2026-02-02T14:25:57.426240
MEAN_MOTION    = 14.88274396
ECCENTRICITY   = .00036488
INCLINATION    = 97.7970
RA_OF_ASC_NODE = 34.4071
ARG_OF_PERICENTER = 185.4299
MEAN_ANOMALY   = 174.6879

EPHEMERIS_TYPE = 0
CLASSIFICATION_TYPE = U
NORAD_CAT_ID   = 67384
ELEMENT_SET_NO = 999
REV_AT_EPOCH   = 327
BSTAR          = .74615649E-3
MEAN_MOTION_DOT = .6845E-4
MEAN_MOTION_DDOT = 0

CCSDS_OMM_VERS = 2.0
CREATION_DATE  = 
ORIGINATOR     = 

OBJECT_NAME    = TWILIGHT Y
OBJECT_ID      = 2026-004Y
CENTER_NAME    = EARTH
REF_FRAME      = TEME
TIME_SYSTEM    = UTC
MEAN_ELEMENT_THEORY = SGP/SGP4

EPOCH          = 2026-02-02T14:24:08.999424
MEAN_MOTION    = 14.88368159
ECCENTRICITY   = .00036633
INCLINATION    = 97.7981
RA_OF_ASC_NODE = 34.4108
ARG_OF_PERICENTER = 178.8798
MEAN_ANOMALY   = 181.2427

EPHEMERIS_TYPE = 0
CLASSIFICATION_TYPE = U
NORAD_CAT_ID   = 67385
ELEMENT_SET_NO = 999
REV_AT_EPOCH   = 327
BSTAR          = .71849267E-3
MEAN_MOTION_DOT = .6604E-4
MEAN_MOTION_DDOT = 0

CCSDS_OMM_VERS = 2.0
CREATION_DATE  = 
ORIGINATOR     = 

OBJECT_NAME    = TWILIGHT Z
OBJECT_ID      = 2026-004Z
CENTER_NAME    = EARTH
REF_FRAME      = TEME
TIME_SYSTEM    = UTC
MEAN_ELEMENT_THEORY = SGP/SGP4

EPOCH          = 2026-02-02T14:22:09.699168
MEAN_MOTION    = 14.88337063
ECCENTRICITY   = .00024538
INCLINATION    = 97.7963
RA_OF_ASC_NODE = 34.4101
ARG_OF_PERICENTER = 176.3930
MEAN_ANOMALY   = 183.7305

EPHEMERIS_TYPE = 0
CLASSIFICATION_TYPE = U
NORAD_CAT_ID   = 67386
ELEMENT_SET_NO = 999
REV_AT_EPOCH   = 327
BSTAR          = .38814784E-3
MEAN_MOTION_DOT = .3538E-4
MEAN_MOTION_DDOT = 0

CCSDS_OMM_VERS = 2.0
CREATION_DATE  = 
ORIGINATOR     = 

OBJECT_NAME    = TWILIGHT AA
OBJECT_ID      = 2026-004AA
CENTER_NAME    = EARTH
REF_FRAME      = TEME
TIME_SYSTEM    = UTC
MEAN_ELEMENT_THEORY = SGP/SGP4

EPOCH          = 2026-02-02T12:39:49.561344
MEAN_MOTION    = 14.88677334
ECCENTRICITY   = .00036504
INCLINATION    = 97.8013
RA_OF_ASC_NODE = 34.3556
ARG_OF_PERICENTER = 149.2336
MEAN_ANOMALY   = 210.9096

EPHEMERIS_TYPE = 0
CLASSIFICATION_TYPE = U
NORAD_CAT_ID   = 67387
ELEMENT_SET_NO = 999
REV_AT_EPOCH   = 326
BSTAR          = .67708152E-3
MEAN_MOTION_DOT = .6268E-4
MEAN_MOTION_DDOT = 0

